{"type": "FeatureCollection", "features": [ {"type": "Feature", "properties": {"norad_id": 66052, "name": "HRC MONOBLOCK CAMERA", "group": "stations", "lat": -38.32590090148968, "lon": 80.44704467906749, "alt_km": 408.32628079024107, "timestamp": "2025-12-17T04:57:43.223196+00:00", "meta": {"OBJECT_NAME": "HRC MONOBLOCK CAMERA", "OBJECT_ID": "1998-067XR", "EPOCH": "2025-12-16T16:50:34.259424", "MEAN_MOTION": 15.54421487, "ECCENTRICITY": 0.00028317, "INCLINATION": 51.6291, "RA_OF_ASC_NODE": 121.7469, "ARG_OF_PERICENTER": 202.0101, "MEAN_ANOMALY": 158.0768, "EPHEMERIS_TYPE": 0, "CLASSIFICATION_TYPE": "U", "NORAD_CAT_ID": 66052, "ELEMENT_SET_NO": 999, "REV_AT_EPOCH": 945, "BSTAR": 0.00049497455, "MEAN_MOTION_DOT": 0.00032777, "MEAN_MOTION_DDOT": 0}, "tle": {"line1": "1 66052U 98067XR  25350.70178541  .00032777  00000+0  49497-3 0  9998", "line2": "2 66052  51.6291 121.7469 0002831 202.0101 158.0768 15.54421487  9459"}}, "geometry": {"type": "Point", "coordinates": [80.44704467906749, -38.32590090148968]}}, {"type": "Feature", "properties": {"norad_id": 66174, "name": "HTV-X1", "group": "stations", "lat": 40.03799781270236, "lon": -101.37836749549489, "alt_km": 413.9420787220097, "timestamp": "2025-12-17T04:57:43.223205+00:00", "meta": {"OBJECT_NAME": "HTV-X1", "OBJECT_ID": "2025-241A", "EPOCH": "2025-12-16T20:41:13.172928", "MEAN_MOTION": 15.49626059, "ECCENTRICITY": 0.00031782, "INCLINATION": 51.6308, "RA_OF_ASC_NODE": 122.0659, "ARG_OF_PERICENTER": 259.3256, "MEAN_ANOMALY": 100.7375, "EPHEMERIS_TYPE": 0, "CLASSIFICATION_TYPE": "U", "NORAD_CAT_ID": 66174, "ELEMENT_SET_NO": 999, "REV_AT_EPOCH": 51, "BSTAR": 0.00014251236, "MEAN_MOTION_DOT": 7.581e-05, "MEAN_MOTION_DDOT": 0}, "tle": {"line1": "1 66174U 25241A   25350.86195802  .00007581  00000+0  14251-3 0  9998", "line2": "2 66174  51.6308 122.0659 0003178 259.3256 100.7375 15.49626059   511"}}, "geometry": {"type": "Point", "coordinates": [-101.37836749549489, 40.03799781270236]}}, {"type": "Feature", "properties": {"norad_id": 66515, "name": "SZ-21 MODULE", "group": "stations", "lat": 7.13106049667919, "lon": -3.067096076224163, "alt_km": 378.10614972445273, "timestamp": "2025-12-17T04:57:43.223214+00:00", "meta": {"OBJECT_NAME": "SZ-21 MODULE", "OBJECT_ID": "2025-246C", "EPOCH": "2025-12-16T08:58:35.368608", "MEAN_MOTION": 15.62674024, "ECCENTRICITY": 0.00060905, "INCLINATION": 41.4775, "RA_OF_ASC_NODE": 353.8744, "ARG_OF_PERICENTER": 279.5924, "MEAN_ANOMALY": 80.4228, "EPHEMERIS_TYPE": 0, "CLASSIFICATION_TYPE": "U", "NORAD_CAT_ID": 66515, "ELEMENT_SET_NO": 999, "REV_AT_EPOCH": 501, "BSTAR": 0.00023521282, "MEAN_MOTION_DOT": 0.00021423, "MEAN_MOTION_DDOT": 0}, "tle": {"line1": "1 66515U 25246C   25350.37402047  .00021423  00000+0  23521-3 0  9991", "line2": "2 66515  41.4775 353.8744 0006090 279.5924  80.4228 15.62674024  5017"}}, "geometry": {"type": "Point", "coordinates": [-3.067096076224163, 7.13106049667919]}}, {"type": "Feature", "properties": {"norad_id": 66645, "name": "SHENZHOU-22", "group": "stations", "lat": 29.828451493750748, "lon": 30.070207329305507, "alt_km": 379.6230555027232, "timestamp": "2025-12-17T04:57:43.223223+00:00", "meta": {"OBJECT_NAME": "SHENZHOU-22", "OBJECT_ID": "2025-272A", "EPOCH": "2025-12-17T00:08:35.156544", "MEAN_MOTION": 15.59356604, "ECCENTRICITY": 0.00077847, "INCLINATION": 41.4682, "RA_OF_ASC_NODE": 350.8038, "ARG_OF_PERICENTER": 67.2573, "MEAN_ANOMALY": 292.9088, "EPHEMERIS_TYPE": 0, "CLASSIFICATION_TYPE": "U", "NORAD_CAT_ID": 66645, "ELEMENT_SET_NO": 999, "REV_AT_EPOCH": 26357, "BSTAR": 0.00024375831, "MEAN_MOTION_DOT": 0.00019519, "MEAN_MOTION_DDOT": 0}, "tle": {"line1": "1 66645U 25272A   25351.00596246  .00019519  00000+0  24376-3 0  9992", "line2": "2 66645  41.4682 350.8038 0007784  67.2573 292.9088 15.59356604263572"}}, "geometry": {"type": "Point", "coordinates": [30.070207329305507, 29.828451493750748]}}, {"type": "Feature", "properties": {"norad_id": 66664, "name": "SOYUZ-MS 28", "group": "stations", "lat": 40.03799675360431, "lon": -101.37836557876568, "alt_km": 413.94207883924537, "timestamp": "2025-12-17T04:57:43.223233+00:00", "meta": {"OBJECT_NAME": "SOYUZ-MS 28", "OBJECT_ID": "2025-275A", "EPOCH": "2025-12-16T20:41:13.172928", "MEAN_MOTION": 15.49626059, "ECCENTRICITY": 0.00031782, "INCLINATION": 51.6308, "RA_OF_ASC_NODE": 122.0659, "ARG_OF_PERICENTER": 259.3256, "MEAN_ANOMALY": 100.7375, "EPHEMERIS_TYPE": 0, "CLASSIFICATION_TYPE": "U", "NORAD_CAT_ID": 66664, "ELEMENT_SET_NO": 999, "REV_AT_EPOCH": 128, "BSTAR": 0.00014251236, "MEAN_MOTION_DOT": 7.581e-05, "MEAN_MOTION_DDOT": 0}, "tle": {"line1": "1 66664U 25275A   25350.86195802  .00007581  00000+0  14251-3 0  9999", "line2": "2 66664  51.6308 122.0659 0003178 259.3256 100.7375 15.49626059  1280"}}, "geometry": {"type": "Point", "coordinates": [-101.37836557876568, 40.03799675360431]}}, {"type": "Feature", "properties": {"norad_id": 66906, "name": "1998-067XS", "group": "stations", "lat": 6.138475007291103, "lon": -64.62864847237066, "alt_km": 412.8607164474961, "timestamp": "2025-12-17T04:57:43.223244+00:00", "meta": {"OBJECT_NAME": "1998-067XS", "OBJECT_ID": "1998-067XS", "EPOCH": "2025-12-16T12:45:26.228448", "MEAN_MOTION": 15.50774437, "ECCENTRICITY": 0.00032711, "INCLINATION": 51.6305, "RA_OF_ASC_NODE": 123.6106, "ARG_OF_PERICENTER": 220.1232, "MEAN_ANOMALY": 139.9515, "EPHEMERIS_TYPE": 0, "CLASSIFICATION_TYPE": "U", "NORAD_CAT_ID": 66906, "ELEMENT_SET_NO": 999, "REV_AT_EPOCH": 220, "BSTAR": 0.00042417105, "MEAN_MOTION_DOT": 0.00024501, "MEAN_MOTION_DDOT": 0}, "tle": {"line1": "1 66906U 98067XS  25350.53155357  .00024501  00000+0  42417-3 0  9998", "line2": "2 66906  51.6305 123.6106 0003271 220.1232 139.9515 15.50774437  2203"}}, "geometry": {"type": "Point", "coordinates": [-64.62864847237066, 6.138475007291103]}}, {"type": "Feature", "properties": {"norad_id": 66907, "name": "1998-067XT", "group": "stations", "lat": -18.80491148110725, "lon": -44.15512780666445, "alt_km": 411.8357737666147, "timestamp": "2025-12-17T04:57:43.223253+00:00", "meta": {"OBJECT_NAME": "1998-067XT", "OBJECT_ID": "1998-067XT", "EPOCH": "2025-12-16T20:21:31.143168", "MEAN_MOTION": 15.51965497, "ECCENTRICITY": 0.00040676, "INCLINATION": 51.63, "RA_OF_ASC_NODE": 121.975, "ARG_OF_PERICENTER": 250.8278, "MEAN_ANOMALY": 109.2271, "EPHEMERIS_TYPE": 0, "CLASSIFICATION_TYPE": "U", "NORAD_CAT_ID": 66907, "ELEMENT_SET_NO": 999, "REV_AT_EPOCH": 225, "BSTAR": 0.00093338761, "MEAN_MOTION_DOT": 0.00057093, "MEAN_MOTION_DDOT": 0}, "tle": {"line1": "1 66907U 98067XT  25350.84827712  .00057093  00000+0  93339-3 0  9995", "line2": "2 66907  51.6300 121.9750 0004067 250.8278 109.2271 15.51965497  2252"}}, "geometry": {"type": "Point", "coordinates": [-44.15512780666445, -18.80491148110725]}}, {"type": "Feature", "properties": {"norad_id": 66908, "name": "1998-067XU", "group": "stations", "lat": -21.26455889972929, "lon": -41.855374513610215, "alt_km": 411.5493260383946, "timestamp": "2025-12-17T04:57:43.223264+00:00", "meta": {"OBJECT_NAME": "1998-067XU", "OBJECT_ID": "1998-067XU", "EPOCH": "2025-12-16T14:09:49.500000", "MEAN_MOTION": 15.5202573, "ECCENTRICITY": 0.00042401, "INCLINATION": 51.6296, "RA_OF_ASC_NODE": 123.2512, "ARG_OF_PERICENTER": 248.5284, "MEAN_ANOMALY": 111.5254, "EPHEMERIS_TYPE": 0, "CLASSIFICATION_TYPE": "U", "NORAD_CAT_ID": 66908, "ELEMENT_SET_NO": 999, "REV_AT_EPOCH": 221, "BSTAR": 0.00090601602, "MEAN_MOTION_DOT": 0.00055516, "MEAN_MOTION_DDOT": 0}, "tle": {"line1": "1 66908U 98067XU  25350.59015625  .00055516  00000+0  90602-3 0  9998", "line2": "2 66908  51.6296 123.2512 0004240 248.5284 111.5254 15.52025730  2213"}}, "geometry": {"type": "Point", "coordinates": [-41.855374513610215, -21.26455889972929]}}, {"type": "Feature", "properties": {"norad_id": 66909, "name": "SILVERSAT", "group": "stations", "lat": -24.19856532550613, "lon": -38.96566751452927, "alt_km": 411.3810617136751, "timestamp": "2025-12-17T04:57:43.223273+00:00", "meta": {"OBJECT_NAME": "SILVERSAT", "OBJECT_ID": "1998-067XV", "EPOCH": "2025-12-16T14:08:52.774080", "MEAN_MOTION": 15.52156791, "ECCENTRICITY": 0.00040754, "INCLINATION": 51.6305, "RA_OF_ASC_NODE": 123.2468, "ARG_OF_PERICENTER": 249.7085, "MEAN_ANOMALY": 110.3467, "EPHEMERIS_TYPE": 0, "CLASSIFICATION_TYPE": "U", "NORAD_CAT_ID": 66909, "ELEMENT_SET_NO": 999, "REV_AT_EPOCH": 221, "BSTAR": 0.00095917161, "MEAN_MOTION_DOT": 0.00059105, "MEAN_MOTION_DDOT": 0}, "tle": {"line1": "1 66909U 98067XV  25350.58949970  .00059105  00000+0  95917-3 0  9999", "line2": "2 66909  51.6305 123.2468 0004075 249.7085 110.3467 15.52156791  2218"}}, "geometry": {"type": "Point", "coordinates": [-38.96566751452927, -24.19856532550613]}}, {"type": "Feature", "properties": {"norad_id": 66910, "name": "1998-067XW", "group": "stations", "lat": -31.139345575158234, "lon": -31.242665710945655, "alt_km": 410.69904257244434, "timestamp": "2025-12-17T04:57:43.223282+00:00", "meta": {"OBJECT_NAME": "1998-067XW", "OBJECT_ID": "1998-067XW", "EPOCH": "2025-12-16T14:06:24.222240", "MEAN_MOTION": 15.52215974, "ECCENTRICITY": 0.00046619, "INCLINATION": 51.6297, "RA_OF_ASC_NODE": 123.2359, "ARG_OF_PERICENTER": 228.2549, "MEAN_ANOMALY": 131.8043, "EPHEMERIS_TYPE": 0, "CLASSIFICATION_TYPE": "U", "NORAD_CAT_ID": 66910, "ELEMENT_SET_NO": 999, "REV_AT_EPOCH": 221, "BSTAR": 0.00082001517, "MEAN_MOTION_DOT": 0.00050519, "MEAN_MOTION_DDOT": 0}, "tle": {"line1": "1 66910U 98067XW  25350.58778035  .00050519  00000+0  82002-3 0  9994", "line2": "2 66910  51.6297 123.2359 0004661 228.2549 131.8043 15.52215974  2214"}}, "geometry": {"type": "Point", "coordinates": [-31.242665710945655, -31.139345575158234]}}]}